{
  "_disclaimer": "SYNTHETIC DEMO DATA ONLY — Agricultural zone boundaries and attributes are entirely fictional, created for the TechnoLand hackathon demo. Not official government zone data.",
  "type": "FeatureCollection",
  "name": "agricultural-zones",
  "features": [
    {
      "type": "Feature",
      "id": 101,
      "properties": {
        "zone_id": "DDN-AZ-001",
        "name": "Doon Valley High-Potential Belt",
        "zone_type": "High Productivity Zone",
        "crop_type": "wheat-rice rotation",
        "area_hectares": 4200,
        "irrigation_status": "partial",
        "productivity_level": "high",
        "water_availability": "seasonal",
        "soil_quality": "alluvial",
        "avg_rainfall_mm": 2050,
        "coverage_villages": 12,
        "suitability": "high",
        "notes": "Core agricultural belt of Dehradun valley. Canal irrigation supports rabi season; kharif largely rain-fed."
      },
      "geometry": {
        "type": "Polygon",
        "coordinates": [[[77.880, 30.380], [78.060, 30.380], [78.060, 30.280], [77.880, 30.280], [77.880, 30.380]]]
      }
    },
    {
      "type": "Feature",
      "id": 102,
      "properties": {
        "zone_id": "DDN-AZ-002",
        "name": "Selaqui–Doiwala Transition Belt",
        "zone_type": "Moderate Productivity Zone",
        "crop_type": "mixed horticulture",
        "area_hectares": 1850,
        "irrigation_status": "limited",
        "productivity_level": "moderate",
        "water_availability": "limited",
        "soil_quality": "loam",
        "avg_rainfall_mm": 1820,
        "coverage_villages": 8,
        "suitability": "moderate",
        "notes": "Transition zone between valley floor and lower Shivalik foothills. Water access varies significantly."
      },
      "geometry": {
        "type": "Polygon",
        "coordinates": [[[77.800, 30.370], [77.890, 30.370], [77.890, 30.300], [77.800, 30.300], [77.800, 30.370]]]
      }
    },
    {
      "type": "Feature",
      "id": 103,
      "properties": {
        "zone_id": "DDN-AZ-003",
        "name": "Shivalik Foothill Rainfed Zone",
        "zone_type": "Low-Input Rain-fed Zone",
        "crop_type": "maize / millets",
        "area_hectares": 2650,
        "irrigation_status": "none",
        "productivity_level": "low",
        "water_availability": "rain-dependent",
        "soil_quality": "laterite",
        "avg_rainfall_mm": 2350,
        "coverage_villages": 15,
        "suitability": "low",
        "notes": "Hilly terrain with steep slopes limits mechanisation. High rainfall but poor water retention. Subsistence farming."
      },
      "geometry": {
        "type": "Polygon",
        "coordinates": [[[77.950, 30.420], [78.070, 30.420], [78.070, 30.370], [77.950, 30.370], [77.950, 30.420]]]
      }
    },
    {
      "type": "Feature",
      "id": 104,
      "properties": {
        "zone_id": "DDN-AZ-004",
        "name": "Yamuna-Ganga Doab Zone",
        "zone_type": "High Productivity Alluvial Zone",
        "crop_type": "sugarcane / rice",
        "area_hectares": 5800,
        "irrigation_status": "good",
        "productivity_level": "high",
        "water_availability": "perennial",
        "soil_quality": "deep alluvial",
        "avg_rainfall_mm": 1870,
        "coverage_villages": 22,
        "suitability": "high",
        "notes": "Eastern doab between Yamuna and Ganga tributaries. Excellent soil and reliable irrigation. Highest zone productivity."
      },
      "geometry": {
        "type": "Polygon",
        "coordinates": [[[78.030, 30.290], [78.150, 30.290], [78.150, 30.150], [78.030, 30.150], [78.030, 30.290]]]
      }
    },
    {
      "type": "Feature",
      "id": 105,
      "properties": {
        "zone_id": "DDN-AZ-005",
        "name": "Vikasnagar Hill Terrace Zone",
        "zone_type": "Terrace Farming Zone",
        "crop_type": "potato / horticulture",
        "area_hectares": 980,
        "irrigation_status": "none",
        "productivity_level": "moderate",
        "water_availability": "rain-dependent",
        "soil_quality": "sandy-loam",
        "avg_rainfall_mm": 2580,
        "coverage_villages": 6,
        "suitability": "moderate",
        "notes": "High-altitude terrace zone. Unique horticultural potential (apple, stone fruits). Access infrastructure is the main constraint."
      },
      "geometry": {
        "type": "Polygon",
        "coordinates": [[[77.730, 30.470], [77.820, 30.470], [77.820, 30.420], [77.730, 30.420], [77.730, 30.470]]]
      }
    },
    {
      "type": "Feature",
      "id": 106,
      "properties": {
        "zone_id": "DDN-AZ-006",
        "name": "Rishikesh Riverine Belt",
        "zone_type": "Riparian Agriculture Zone",
        "crop_type": "vegetables / paddy",
        "area_hectares": 1140,
        "irrigation_status": "seasonal",
        "productivity_level": "moderate",
        "water_availability": "seasonal-good",
        "soil_quality": "alluvial-sandy",
        "avg_rainfall_mm": 1940,
        "coverage_villages": 7,
        "suitability": "moderate",
        "notes": "Ganga riverine strip. Fertile seasonal floodplains but flood risk during monsoon. Good for vegetable production."
      },
      "geometry": {
        "type": "Polygon",
        "coordinates": [[[78.085, 30.170], [78.145, 30.170], [78.145, 30.090], [78.085, 30.090], [78.085, 30.170]]]
      }
    }
  ]
}
